SPACEMOBILE-006         
1 67232U 25309A   26068.38137934  .00002788  00000+0  15071-3 0  9990
2 67232  52.9942  68.5923 0010903 179.6299 180.4705 15.18012179 11431
